STARLINK-31015          
1 58521U 23191P   24086.13761632  .00006247  00000+0  47720-3 0  9997
2 58521  43.0010  23.3199 0001206 267.2073  92.8632 15.02528805 18076
STARLINK-31023          
1 58522U 23191Q   24085.93484266 -.00000956  00000+0 -55754-4 0  9990
2 58522  42.9970  24.3723 0001840 267.9997  92.0635 15.02521062 18107
STARLINK-30932          
1 58523U 23191R   24086.19743036  .00016893  00000+0  12630-2 0  9992
2 58523  43.0018  22.8992 0001413 269.9080  90.1601 15.02522965 18076
STARLINK-30992          
1 58524U 23191S   24086.52648346  .00027650  00000+0  20541-2 0  9991
2 58524  43.0021  21.0702 0000062 162.5473 197.5371 15.02531252 18024
STARLINK-30948          
1 58525U 23191T   24086.19077078  .00026621  00000+0  19794-2 0  9998
2 58525  42.9984  22.8510 0000916 254.6326 105.4415 15.02514177 18142
STARLINK-31013          
1 58526U 23191U   24086.18745431 -.00002604  00000+0 -17788-3 0  9992
2 58526  42.9999  22.8249 0000912 272.2886  87.7851 15.02512521 18092
STARLINK-31001          
1 58527U 23191V   24086.50315897  .00005877  00000+0  44990-3 0  9996
2 58527  43.0014  20.7908 0001805 247.6013 112.4638 15.02526068 18025
STARLINK-31004          
1 58528U 23191W   24086.51649411 -.00007394  00000+0 -53314-3 0  9998
2 58528  43.0019  20.9884 0001514 258.7824 101.2848 15.02515495 18184
STARLINK-30988          
1 58529U 23191X   24086.51316280  .00003725  00000+0  29066-3 0  9993
2 58529  42.9991  20.9616 0000532 258.3254 101.7528 15.02540434 17659
STARLINK-31009          
1 58530U 23191Y   24085.84506104  .00000397  00000+0  44482-4 0  9998
2 58530  43.0015  24.5473 0001723 255.4340 104.6311 15.02521661 18089
STARLINK-31012          
1 58531U 23192A   24086.51447967 -.00009281  00000+0 -32286-3 0  9997
2 58531  53.1617 134.7667 0002109  88.0829 272.0412 15.28011207 17999
STARLINK-31035          
1 58532U 23192B   24086.41644614  .00003244  00000+0  12979-3 0  9993
2 58532  53.1567 133.4191 0001302  75.7560 284.3585 15.28007054 18006
STARLINK-31036          
1 58533U 23192C   24086.45399517  .00015188  00000+0  55985-3 0  9991
2 58533  53.1611 134.4087 0001542  96.5689 263.5487 15.28021631 18008
STARLINK-30936          
1 58534U 23192D   24086.55825250  .00016888  00000+0  61145-3 0  9994
2 58534  53.1558 134.3270 0001690  79.9044 280.2147 15.28528814 18000
STARLINK-31032          
1 58535U 23192E   24086.50978980  .00005071  00000+0  19563-3 0  9998
2 58535  53.1586 134.7355 0001758 105.4335 254.6859 15.28020063 18001
STARLINK-31037          
1 58536U 23192F   24086.44913222  .00001703  00000+0  74189-4 0  9994
2 58536  53.1627 132.9592 0001447 118.5266 241.5880 15.27998994 18021
STARLINK-31041          
1 58537U 23192G   24086.43503057  .00022481  00000+0  82185-3 0  9995
2 58537  53.1569 134.9800 0001323  61.0314 299.0818 15.28018870 17991
STARLINK-31014          
1 58538U 23192H   24086.42600026 -.00002029  00000+0 -60647-4 0  9997
2 58538  53.1585 134.9294 0001729  90.3018 269.8180 15.27999805 17939
STARLINK-31055          
1 58539U 23192J   24086.42133111 -.00000267  00000+0  30424-5 0  9996
2 58539  53.1564 134.8954 0001534  71.1909 288.9257 15.28008772 17986
STARLINK-31019          
1 58540U 23192K   24086.43037338  .00082818  00000+0  29666-2 0  9997
2 58540  53.1561 134.9522 0001417  91.3753 268.7409 15.28050505 17984
STARLINK-31045          
1 58541U 23192L   24086.42236152 -.00005056  00000+0 -33418-3 0  9994
2 58541  53.1616 131.2003 0001901 100.7455 259.3749 15.04910904 18034
STARLINK-31030          
1 58542U 23192M   24086.55181929  .00043477  00000+0  15743-2 0  9997
2 58542  53.1564 134.2858 0001653  86.2639 273.8550 15.27994842 18000
STARLINK-31049          
1 58543U 23192N   24086.54712796  .00002711  00000+0  11055-3 0  9998
2 58543  53.1574 134.2588 0001271  70.6068 289.5069 15.28005671 18004
STARLINK-31048          
1 58544U 23192P   24086.47718739  .00004242  00000+0  16573-3 0  9995
2 58544  53.1575 133.0763 0001675  82.3857 277.7333 15.28020016 18027
STARLINK-31057          
1 58545U 23192Q   24086.41162000  .00007246  00000+0  27390-3 0  9990
2 58545  53.1585 134.8329 0001622  91.9988 268.1198 15.28035001 17997
STARLINK-31050          
1 58546U 23192R   24086.53777248  .00018784  00000+0  68895-3 0  9994
2 58546  53.1576 134.1955 0002378  97.4239 262.7031 15.28025650 17945
STARLINK-31063          
1 58547U 23192S   24086.49511487 -.00003151  00000+0 -10109-3 0  9990
2 58547  53.1576 132.4657 0001461 110.0187 250.0970 15.28030772 17811
STARLINK-31016          
1 58548U 23192T   24086.53323999  .00023225  00000+0  84854-3 0  9995
2 58548  53.1577 132.7090 0001932  83.6514 276.4706 15.28019374 18027
STARLINK-31053          
1 58549U 23192U   24086.53308495 -.00002345  00000+0 -71971-4 0  9999
2 58549  53.1612 134.1663 0001979 109.3743 250.7471 15.28039127 18001
STARLINK-31056          
1 58550U 23192V   24086.52364801  .00001629  00000+0  71499-4 0  9990
2 58550  53.1618 133.4042 0001450  96.3623 263.7542 15.28006885 18028
STARLINK-30999          
1 58551U 23192W   24085.81165954  .00007035  00000+0  26640-3 0  9994
2 58551  53.1573 128.1386 0002804  89.1358 270.9963 15.28023877 16834
STARLINK-31046          
1 58552U 23192X   24086.45364037 -.00011018  00000+0 -38623-3 0  9991
2 58552  53.1611 134.3856 0001649 105.0303 255.0879 15.27974282 17995
STARLINK-31044          
1 58589U 23200A   24086.41646821  .00041140  00000+0  30405-2 0  9997
2 58589  43.0007  85.6142 0002049 230.7559 129.3102 15.02563031 16329
STARLINK-31062          
1 58590U 23200B   24086.43318436  .00166483  00000+0  12296-1 0  9994
2 58590  43.0009  87.4544 0001800 264.6693  95.3944 15.01768138 16317
STARLINK-31043          
1 58591U 23200C   24086.40796012  .00004774  00000+0  36833-3 0  9991
2 58591  43.0004  87.2690 0000534 250.4031 109.6754 15.02524828 16310
STARLINK-31096          
1 58592U 23200D   24086.39575806  .00021075  00000+0  15704-2 0  9992
2 58592  42.9992  87.1806 0000570 252.9597 107.1183 15.02538895 16315
STARLINK-31094          
1 58593U 23200E   24085.74183982  .00002447  00000+0  19619-3 0  9993
2 58593  43.0004  90.0230 0000899 282.7989  77.2752 15.02533897 16198
STARLINK-31075          
1 58594U 23200F   24086.40328270  .00018515  00000+0  13823-2 0  9992
2 58594  42.9995  86.3904 0001053 268.0415  92.0307 15.02529856 16322
STARLINK-30857          
1 58595U 23200G   24086.39661597  .00019485  00000+0  14537-2 0  9993
2 58595  42.9993  86.3426 0001045 248.8643 111.2088 15.02529337 16324
STARLINK-31059          
1 58596U 23200H   24086.33225131  .00071017  00000+0  26970-2 0  9991
2 58596  42.9986  75.5125 0000898 251.7002 108.3752 15.25930149 16440
STARLINK-31087          
1 58597U 23200J   24086.05757178 -.00001503  00000+0 -96279-4 0  9998
2 58597  42.9968  88.0997 0000230 198.5043 161.5791 15.02521160 16145
STARLINK-31079          
1 58598U 23200K   24086.45311264  .00021694  00000+0  16166-2 0  9991
2 58598  42.9998  85.9066 0000224 293.6576  66.4243 15.02522664 16339
STARLINK-31072          
1 58599U 23200L   24086.39222548  .00039823  00000+0  15237-2 0  9992
2 58599  43.0017  81.1635 0001637 261.5569  98.5096 15.25916348 16376
STARLINK-31052          
1 58600U 23200M   24086.38329283  .00035711  00000+0  26456-2 0  9995
2 58600  43.0009  86.2430 0002457 263.4044  96.6519 15.02529025 16319
STARLINK-31074          
1 58601U 23200N   24086.37996371  .00004197  00000+0  32565-3 0  9996
2 58601  42.9993  86.2173 0001068 264.0818  95.9903 15.02525056 16316
STARLINK-31071          
1 58602U 23200P   24086.34913213  .00041503  00000+0  15857-2 0  9994
2 58602  43.0026  70.4153 0001628 249.9975 110.0701 15.25947412 16388
STARLINK-31080          
1 58603U 23200Q   24086.44313250  .00013296  00000+0  99811-3 0  9992
2 58603  42.9973  85.8275 0000786  31.2420 328.8469 15.02510820 16041
STARLINK-31088          
1 58604U 23200R   24086.04091823  .00012069  00000+0  90712-3 0  9996
2 58604  43.0025  87.9476 0001122 277.3357  82.7358 15.02528014 16266
STARLINK-31038          
1 58605U 23200S   24086.16721136 -.00006642  00000+0 -47732-3 0  9993
2 58605  42.9991  87.1939 0000942 244.6718 115.4027 15.02516342 16280
STARLINK-31082          
1 58606U 23200T   24086.17054076 -.00006950  00000+0 -50021-3 0  9994
2 58606  42.9989  87.2208 0001071 268.3696  91.7024 15.02515635 16287
STARLINK-31069          
1 58607U 23200U   24086.16388567  .00004321  00000+0  33478-3 0  9994
2 58607  43.0010  87.1707 0000964 286.0965  73.9771 15.02534288 16280
STARLINK-31067          
1 58608U 23200V   24086.16055889  .00013314  00000+0  99885-3 0  9999
2 58608  43.0002  87.1395 0001525 252.2835 107.7841 15.02532175 16287
STARLINK-31085          
1 58609U 23200W   24085.69187984  .00000068  00000+0  20092-4 0  9996
2 58609  43.0012  89.6395 0001352 278.1799  81.8890 15.02525555 16190
STARLINK-31089          
1 58610U 23200X   24086.41325495  .00005146  00000+0  39586-3 0  9999
2 58610  43.0006  86.3887 0000790 236.6193 123.4574 15.02522787 16328
STARLINK-31061          
1 58611U 23200Y   24086.35333093  .00024110  00000+0  17943-2 0  9990
2 58611  43.0005  86.0010 0000852 256.8716 103.2031 15.02524156 16301
STARLINK-31054          
1 58619U 23203B   24086.52527587  .00042772  00000+0  16335-2 0  9991
2 58619  42.9994 130.2529 0001249 301.5847  58.4882 15.25949935 15658
STARLINK-31118          
1 58620U 23203C   24086.50420146  .00045885  00000+0  16433-2 0  9991
2 58620  43.0046 130.0951 0001495 194.2715 165.8095 15.28042308 15774
STARLINK-31134          
1 58621U 23203D   24085.85938458  .00027270  00000+0  10497-2 0  9991
2 58621  43.0015 133.8476 0001565 259.7828 100.2847 15.25870475 14446
STARLINK-31133          
1 58622U 23203E   24086.19345556  .00034100  00000+0  13077-2 0  9998
2 58622  43.0006 132.0611 0000921 269.2157  90.8588 15.25902358 14492
STARLINK-31068          
